     2              NAVIGATION DATA                         RINEX VERSION / TYPE
CCRINEXN V1.6.0 UX  CDDIS               07-FEB-16 23:39     PGM / RUN BY / DATE 
IGS BROADCAST EPHEMERIS FILE                                COMMENT             
    0.1490D-07 -0.7451D-08 -0.5960D-07  0.1192D-06          ION ALPHA           
    0.1229D+06 -0.1311D+06  0.0000D+00 -0.6554D+05          ION BETA            
   -0.279396772385D-08-0.710542735760D-14   319488     1883 DELTA-UTC: A0,A1,T,W
    17                                                      LEAP SECONDS        
                                                            END OF HEADER       
15 16  2  7 23 59 44.0-0.296116806567D-03-0.181898940355D-11 0.000000000000D+00
    0.200000000000D+02-0.214687500000D+02 0.582524264474D-08-0.650421756174D+00
   -0.981613993645D-06 0.805798522197D-02 0.396184623241D-05 0.515378197288D+04
    0.863840000000D+05 0.134110450745D-06 0.175360329559D+01 0.651925802231D-07
    0.930954171807D+00 0.283781250000D+03 0.480559179550D+00-0.883143929347D-08
   -0.154649298907D-09 0.000000000000D+00 0.188300000000D+04 0.000000000000D+00
    0.200000000000D+01 0.000000000000D+00-0.107102096081D-07 0.200000000000D+02
    0.844500000000D+05 0.400000000000D+01 0.000000000000D+00 0.000000000000D+00
21 16  2  7 23 59 44.0-0.509328208864D-03-0.193267624127D-11 0.000000000000D+00
    0.100000000000D+01-0.130562500000D+03 0.454126070082D-08 0.265773417391D+01
   -0.674091279507D-05 0.230987634277D-01 0.111050903797D-04 0.515368370056D+04
    0.863840000000D+05 0.216066837311D-06-0.308438581556D+00-0.178813934326D-06
    0.936047463003D+00 0.148750000000D+03-0.183348425495D+01-0.765496199762D-08
   -0.130362567963D-09 0.100000000000D+01 0.188300000000D+04 0.000000000000D+00
    0.200000000000D+01 0.000000000000D+00-0.116415321827D-07 0.100000000000D+01
    0.837900000000D+05 0.000000000000D+00 0.000000000000D+00 0.000000000000D+00
30 16  2  7 23 59 44.0 0.938386656344D-04 0.443378667114D-11 0.000000000000D+00
    0.170000000000D+02 0.450937500000D+02 0.444089926699D-08-0.255376451580D+01
    0.232085585594D-05 0.167470029555D-02 0.135060399771D-04 0.515364778900D+04
    0.863840000000D+05-0.130385160446D-07 0.292686356298D+01-0.298023223877D-07
    0.953685427409D+00 0.118000000000D+03 0.303628298153D+01-0.784104089654D-08
   -0.375729936374D-09 0.100000000000D+01 0.188300000000D+04 0.000000000000D+00
    0.200000000000D+01 0.000000000000D+00 0.325962901115D-08 0.170000000000D+02
    0.803460000000D+05 0.400000000000D+01 0.000000000000D+00 0.000000000000D+00
